[{"OBJECT_NAME":"ONEWEB-0600","OBJECT_ID":"2022-166Y","EPOCH":"2026-05-03T07:19:54.515712","MEAN_MOTION":13.21824767,"ECCENTRICITY":0.0002067,"INCLINATION":87.9225,"RA_OF_ASC_NODE":252.9133,"ARG_OF_PERICENTER":95.9622,"MEAN_ANOMALY":264.1748,"EPHEMERIS_TYPE":0,"CLASSIFICATION_TYPE":"U","NORAD_CAT_ID":54664,"ELEMENT_SET_NO":999,"REV_AT_EPOCH":16558,"BSTAR":7.4052e-05,"MEAN_MOTION_DOT":4.4e-07,"MEAN_MOTION_DDOT":0.0},{"OBJECT_NAME":"ONEWEB-0601","OBJECT_ID":"2022-166Z","EPOCH":"2026-05-03T01:40:47.510112","MEAN_MOTION":13.21824943,"ECCENTRICITY":0.0002103,"INCLINATION":87.9226,"RA_OF_ASC_NODE":252.9767,"ARG_OF_PERICENTER":105.1522,"MEAN_ANOMALY":254.9844,"EPHEMERIS_TYPE":0,"CLASSIFICATION_TYPE":"U","NORAD_CAT_ID":54665,"ELEMENT_SET_NO":999,"REV_AT_EPOCH":16574,"BSTAR":4.772600000000001e-06,"MEAN_MOTION_DOT":1.5e-07,"MEAN_MOTION_DDOT":0.0},{"OBJECT_NAME":"ONEWEB-0602","OBJECT_ID":"2022-166AA","EPOCH":"2026-05-03T02:40:07.609152","MEAN_MOTION":13.21827508,"ECCENTRICITY":0.0002109,"INCLINATION":87.9225,"RA_OF_ASC_NODE":252.9747,"ARG_OF_PERICENTER":95.3032,"MEAN_ANOMALY":264.8342,"EPHEMERIS_TYPE":0,"CLASSIFICATION_TYPE":"U","NORAD_CAT_ID":54666,"ELEMENT_SET_NO":999,"REV_AT_EPOCH":16559,"BSTAR":3.8986e-05,"MEAN_MOTION_DOT":2.9e-07,"MEAN_MOTION_DDOT":0.0},{"OBJECT_NAME":"ONEWEB-0603","OBJECT_ID":"2022-166AB","EPOCH":"2026-05-02T21:21:35.155872","MEAN_MOTION":13.21827563,"ECCENTRICITY":0.000204,"INCLINATION":87.9236,"RA_OF_ASC_NODE":252.9713,"ARG_OF_PERICENTER":100.3227,"MEAN_ANOMALY":259.8137,"EPHEMERIS_TYPE":0,"CLASSIFICATION_TYPE":"U","NORAD_CAT_ID":54667,"ELEMENT_SET_NO":999,"REV_AT_EPOCH":16549,"BSTAR":-0.0002385,"MEAN_MOTION_DOT":-8.5e-07,"MEAN_MOTION_DDOT":0.0},{"OBJECT_NAME":"ONEWEB-0604","OBJECT_ID":"2022-166AC","EPOCH":"2026-05-03T02:31:38.756352","MEAN_MOTION":13.21827361,"ECCENTRICITY":0.0001842,"INCLINATION":87.9239,"RA_OF_ASC_NODE":252.9431,"ARG_OF_PERICENTER":98.6947,"MEAN_ANOMALY":261.4396,"EPHEMERIS_TYPE":0,"CLASSIFICATION_TYPE":"U","NORAD_CAT_ID":54668,"ELEMENT_SET_NO":999,"REV_AT_EPOCH":16548,"BSTAR":0.00017078,"MEAN_MOTION_DOT":8.4e-07,"MEAN_MOTION_DDOT":0.0},{"OBJECT_NAME":"ONEWEB-0605","OBJECT_ID":"2022-166AD","EPOCH":"2026-05-03T02:21:57.475296","MEAN_MOTION":13.21826781,"ECCENTRICITY":0.0002151,"INCLINATION":87.9226,"RA_OF_ASC_NODE":252.962,"ARG_OF_PERICENTER":117.6831,"MEAN_ANOMALY":242.4521,"EPHEMERIS_TYPE":0,"CLASSIFICATION_TYPE":"U","NORAD_CAT_ID":54669,"ELEMENT_SET_NO":999,"REV_AT_EPOCH":16555,"BSTAR":-0.00014790000000000002,"MEAN_MOTION_DOT":-4.8e-07,"MEAN_MOTION_DDOT":0.0},{"OBJECT_NAME":"ONEWEB-0606","OBJECT_ID":"2022-166AE","EPOCH":"2026-05-03T02:53:26.458368","MEAN_MOTION":13.21827475,"ECCENTRICITY":0.000174,"INCLINATION":87.9226,"RA_OF_ASC_NODE":252.9707,"ARG_OF_PERICENTER":96.7969,"MEAN_ANOMALY":263.3363,"EPHEMERIS_TYPE":0,"CLASSIFICATION_TYPE":"U","NORAD_CAT_ID":54670,"ELEMENT_SET_NO":999,"REV_AT_EPOCH":16561,"BSTAR":-0.00019069,"MEAN_MOTION_DOT":-6.6e-07,"MEAN_MOTION_DDOT":0.0},{"OBJECT_NAME":"ONEWEB-0607","OBJECT_ID":"2022-166AF","EPOCH":"2026-05-03T02:05:00.701088","MEAN_MOTION":13.21824495,"ECCENTRICITY":0.000207,"INCLINATION":87.9234,"RA_OF_ASC_NODE":252.945,"ARG_OF_PERICENTER":99.4511,"MEAN_ANOMALY":260.6857,"EPHEMERIS_TYPE":0,"CLASSIFICATION_TYPE":"U","NORAD_CAT_ID":54671,"ELEMENT_SET_NO":999,"REV_AT_EPOCH":16558,"BSTAR":1.7454e-05,"MEAN_MOTION_DOT":2e-07,"MEAN_MOTION_DDOT":0.0},{"OBJECT_NAME":"ONEWEB-0608","OBJECT_ID":"2022-166AG","EPOCH":"2026-05-03T02:14:41.068896","MEAN_MOTION":13.21823862,"ECCENTRICITY":0.0002296,"INCLINATION":87.9235,"RA_OF_ASC_NODE":252.939,"ARG_OF_PERICENTER":111.2794,"MEAN_ANOMALY":248.8585,"EPHEMERIS_TYPE":0,"CLASSIFICATION_TYPE":"U","NORAD_CAT_ID":54672,"ELEMENT_SET_NO":999,"REV_AT_EPOCH":16559,"BSTAR":-7.2666e-05,"MEAN_MOTION_DOT":-1.7e-07,"MEAN_MOTION_DDOT":0.0},{"OBJECT_NAME":"ONEWEB-0610","OBJECT_ID":"2022-166AH","EPOCH":"2026-05-03T07:12:38.372832","MEAN_MOTION":13.21824532,"ECCENTRICITY":0.0002498,"INCLINATION":87.9226,"RA_OF_ASC_NODE":252.9163,"ARG_OF_PERICENTER":106.4987,"MEAN_ANOMALY":253.6422,"EPHEMERIS_TYPE":0,"CLASSIFICATION_TYPE":"U","NORAD_CAT_ID":54673,"ELEMENT_SET_NO":999,"REV_AT_EPOCH":16552,"BSTAR":8.862600000000002e-05,"MEAN_MOTION_DOT":5e-07,"MEAN_MOTION_DDOT":0.0},{"OBJECT_NAME":"ONEWEB-0611","OBJECT_ID":"2022-166AJ","EPOCH":"2026-05-03T01:35:55.272480","MEAN_MOTION":13.21823608,"ECCENTRICITY":0.0001773,"INCLINATION":87.9226,"RA_OF_ASC_NODE":252.9596,"ARG_OF_PERICENTER":98.6844,"MEAN_ANOMALY":261.4491,"EPHEMERIS_TYPE":0,"CLASSIFICATION_TYPE":"U","NORAD_CAT_ID":54674,"ELEMENT_SET_NO":999,"REV_AT_EPOCH":16548,"BSTAR":0.00013178000000000002,"MEAN_MOTION_DOT":6.7e-07,"MEAN_MOTION_DDOT":0.0},{"OBJECT_NAME":"ONEWEB-0612","OBJECT_ID":"2022-166AK","EPOCH":"2026-05-03T07:22:20.084160","MEAN_MOTION":13.21826279,"ECCENTRICITY":0.0002048,"INCLINATION":87.9236,"RA_OF_ASC_NODE":252.9019,"ARG_OF_PERICENTER":103.8746,"MEAN_ANOMALY":256.2616,"EPHEMERIS_TYPE":0,"CLASSIFICATION_TYPE":"U","NORAD_CAT_ID":54675,"ELEMENT_SET_NO":999,"REV_AT_EPOCH":16550,"BSTAR":0.00024812,"MEAN_MOTION_DOT":1.15e-06,"MEAN_MOTION_DDOT":0.0},{"OBJECT_NAME":"ONEWEB-0615","OBJECT_ID":"2022-166AL","EPOCH":"2026-05-03T01:26:13.676064","MEAN_MOTION":13.21826066,"ECCENTRICITY":0.0001793,"INCLINATION":87.9228,"RA_OF_ASC_NODE":252.97,"ARG_OF_PERICENTER":91.9365,"MEAN_ANOMALY":268.1975,"EPHEMERIS_TYPE":0,"CLASSIFICATION_TYPE":"U","NORAD_CAT_ID":54676,"ELEMENT_SET_NO":999,"REV_AT_EPOCH":16548,"BSTAR":4.4264e-05,"MEAN_MOTION_DOT":3.1e-07,"MEAN_MOTION_DDOT":0.0},{"OBJECT_NAME":"ONEWEB-0655","OBJECT_ID":"2022-166AM","EPOCH":"2026-05-02T21:14:19.477824","MEAN_MOTION":13.21827399,"ECCENTRICITY":0.0002163,"INCLINATION":87.9225,"RA_OF_ASC_NODE":253.0067,"ARG_OF_PERICENTER":96.5399,"MEAN_ANOMALY":263.5981,"EPHEMERIS_TYPE":0,"CLASSIFICATION_TYPE":"U","NORAD_CAT_ID":54677,"ELEMENT_SET_NO":999,"REV_AT_EPOCH":16545,"BSTAR":-0.00010363,"MEAN_MOTION_DOT":-3e-07,"MEAN_MOTION_DDOT":0.0},{"OBJECT_NAME":"ONEWEB-0659","OBJECT_ID":"2022-166AN","EPOCH":"2026-05-03T01:16:32.586816","MEAN_MOTION":13.21819442,"ECCENTRICITY":0.0001804,"INCLINATION":87.9228,"RA_OF_ASC_NODE":252.9735,"ARG_OF_PERICENTER":100.9116,"MEAN_ANOMALY":259.2221,"EPHEMERIS_TYPE":0,"CLASSIFICATION_TYPE":"U","NORAD_CAT_ID":54678,"ELEMENT_SET_NO":999,"REV_AT_EPOCH":16556,"BSTAR":-2.4295e-05,"MEAN_MOTION_DOT":3e-08,"MEAN_MOTION_DDOT":0.0},{"OBJECT_NAME":"ONEWEB-0685","OBJECT_ID":"2022-166AP","EPOCH":"2026-05-03T06:43:41.144448","MEAN_MOTION":13.21817394,"ECCENTRICITY":0.0002113,"INCLINATION":87.9225,"RA_OF_ASC_NODE":252.9214,"ARG_OF_PERICENTER":99.234,"MEAN_ANOMALY":260.9033,"EPHEMERIS_TYPE":0,"CLASSIFICATION_TYPE":"U","NORAD_CAT_ID":54679,"ELEMENT_SET_NO":999,"REV_AT_EPOCH":16548,"BSTAR":6.3131e-05,"MEAN_MOTION_DOT":3.9e-07,"MEAN_MOTION_DDOT":0.0}]