ONEWEB-0600             
1 54664U 22166Y   26123.30549208  .00000044  00000+0  74052-4 0  9996
2 54664  87.9225 252.9133 0002067  95.9622 264.1748 13.21824767165581
ONEWEB-0601             
1 54665U 22166Z   26123.06999433  .00000015  00000+0  47726-5 0  9996
2 54665  87.9226 252.9767 0002103 105.1522 254.9844 13.21824943165748
ONEWEB-0602             
1 54666U 22166AA  26123.11119918  .00000029  00000+0  38986-4 0  9997
2 54666  87.9225 252.9747 0002109  95.3032 264.8342 13.21827508165594
ONEWEB-0603             
1 54667U 22166AB  26122.88999023 -.00000085  00000+0 -23850-3 0  9991
2 54667  87.9236 252.9713 0002040 100.3227 259.8137 13.21827563165493
ONEWEB-0604             
1 54668U 22166AC  26123.10530968  .00000084  00000+0  17078-3 0  9999
2 54668  87.9239 252.9431 0001842  98.6947 261.4396 13.21827361165482
ONEWEB-0605             
1 54669U 22166AD  26123.09858189 -.00000048  00000+0 -14790-3 0  9996
2 54669  87.9226 252.9620 0002151 117.6831 242.4521 13.21826781165559
ONEWEB-0606             
1 54670U 22166AE  26123.12044512 -.00000066  00000+0 -19069-3 0  9993
2 54670  87.9226 252.9707 0001740  96.7969 263.3363 13.21827475165613
ONEWEB-0607             
1 54671U 22166AF  26123.08681367  .00000020  00000+0  17454-4 0  9999
2 54671  87.9234 252.9450 0002070  99.4511 260.6857 13.21824495165581
ONEWEB-0608             
1 54672U 22166AG  26123.09353089 -.00000017  00000+0 -72666-4 0  9992
2 54672  87.9235 252.9390 0002296 111.2794 248.8585 13.21823862165596
ONEWEB-0610             
1 54673U 22166AH  26123.30044413  .00000050  00000+0  88626-4 0  9993
2 54673  87.9226 252.9163 0002498 106.4987 253.6422 13.21824532165521
ONEWEB-0611             
1 54674U 22166AJ  26123.06661195  .00000067  00000+0  13178-3 0  9996
2 54674  87.9226 252.9596 0001773  98.6844 261.4491 13.21823608165482
ONEWEB-0612             
1 54675U 22166AK  26123.30717690  .00000115  00000+0  24812-3 0  9997
2 54675  87.9236 252.9019 0002048 103.8746 256.2616 13.21826279165501
ONEWEB-0615             
1 54676U 22166AL  26123.05988051  .00000031  00000+0  44264-4 0  9992
2 54676  87.9228 252.9700 0001793  91.9365 268.1975 13.21826066165481
ONEWEB-0655             
1 54677U 22166AM  26122.88494766 -.00000030  00000+0 -10363-3 0  9991
2 54677  87.9225 253.0067 0002163  96.5399 263.5981 13.21827399165450
ONEWEB-0659             
1 54678U 22166AN  26123.05315494  .00000003  00000+0 -24295-4 0  9991
2 54678  87.9228 252.9735 0001804 100.9116 259.2221 13.21819442165563
ONEWEB-0685             
1 54679U 22166AP  26123.28033732  .00000039  00000+0  63131-4 0  9999
2 54679  87.9225 252.9214 0002113  99.2340 260.9033 13.21817394165481
